{
  "norad_id": 62498,
  "name": "STARLINK-32739",
  "history": [
    {
      "epoch": "2026-03-28T15:55:57.409824",
      "apogee_km": 483.9393486746003,
      "perigee_km": 481.9875028254837,
      "latitude_deg": 10.793081567799227,
      "longitude_deg": 133.53045535995625,
      "semi_major_axis_km": 6861.100425750042,
      "eccentricity": 0.00014224,
      "inclination_deg": 43.0004,
      "raan_deg": 181.7913,
      "arg_perigee_deg": 269.5707,
      "mean_anomaly_deg": 90.4981,
      "mean_motion_rev_day": 15.27608611
    }
  ]
}